{
    "week": 289,
    "satellites": [
        {
            "Name": "BEIDOU-3 M28 (C50)",
            "Line1": "1 58654U 23207A   24296.83599649  .00000000  00000+0  00000+0 0  9996",
            "Line2": "2 58654  55.2193  82.7168 0001001 209.7775 150.2083  1.86232070  5627",
            "SatelliteNumber": "58654",
            "Classification": "U",
            "LaunchYear": "23",
            "LaunchNumber": "207",
            "PieceOfLaunch": "A",
            "EpochYear": "24",
            "EpochDay": 296.83599649,
            "FirstDerivativeMeanMotion": 0.0,
            "SecondDerivativeMeanMotion": "00000+0",
            "BSTAR": "00000+0",
            "SetNumber": "999",
            "Inclination": 55.2193,
            "RAAN": 82.7168,
            "Eccentricity": 0.0001001,
            "ArgumentOfPerigee": 209.7775,
            "MeanAnomaly": 150.2083,
            "MeanMotion": 1.8623207,
            "RevolutionNumber": "562"
        },
        {
            "Name": "BEIDOU-3 M26 (C48)",
            "Line1": "1 58655U 23207B   24297.17218074  .00000002  00000+0  00000+0 0  9997",
            "Line2": "2 58655  55.2215  82.6909 0002453 217.3738 142.6015  1.86231608  5616",
            "SatelliteNumber": "58655",
            "Classification": "U",
            "LaunchYear": "23",
            "LaunchNumber": "207",
            "PieceOfLaunch": "B",
            "EpochYear": "24",
            "EpochDay": 297.17218074,
            "FirstDerivativeMeanMotion": 2e-08,
            "SecondDerivativeMeanMotion": "00000+0",
            "BSTAR": "00000+0",
            "SetNumber": "999",
            "Inclination": 55.2215,
            "RAAN": 82.6909,
            "Eccentricity": 0.0002453,
            "ArgumentOfPerigee": 217.3738,
            "MeanAnomaly": 142.6015,
            "MeanMotion": 1.86231608,
            "RevolutionNumber": "561"
        }
    ]
}